start=new Date('2022-03-25T00:00:00.000Z').valueOf();
sats=[{"CLASSIFICATION_TYPE":"U","PERIOD":"95.592","RA_OF_ASC_NODE":"87.7317","ECCENTRICITY":"0.00017160","OBJECT_TYPE":"PAYLOAD","PERIAPSIS":"546.018","MEAN_MOTION":"15.06402218","INCLINATION":"53.0538","ARG_OF_PERICENTER":"69.7904","EPHEMERIS_TYPE":"0","COUNTRY_CODE":"US","LAUNCH_DATE":"2020-04-22","MEAN_MOTION_DOT":"0.00000961","RCS_SIZE":"LARGE","OBJECT_NAME":"STARLINK-1346","SEMIMAJOR_AXIS":"6925.342","CENTER_NAME":"EARTH","MEAN_MOTION_DDOT":"0.0000000000000","REV_AT_EPOCH":"10697","GP_ID":"199580646","FILE":"3372306","ELEMENT_SET_NO":"999","TLE_LINE1":"1 45560U 20025AF  22083.74321549  .00000961  00000-0  83422-4 0  9998","TLE_LINE2":"2 45560  53.0538  87.7317 0001716  69.7904 290.3270 15.06402218106974","EPOCH":"2022-03-24T17:50:13.818336","NORAD_CAT_ID":"45560","MEAN_ANOMALY":"290.3270","APOAPSIS":"548.395","SITE":"AFETR","REF_FRAME":"TEME","MEAN_ELEMENT_THEORY":"SGP4","OBJECT_ID":"2020-025AF","BSTAR":"0.00008342200000","TIME_SYSTEM":"UTC","DECAY_DATE":null},{"EPOCH":"2022-03-24T18:15:44.784864","TLE_LINE1":"1 45561U 20025AG  22083.76093501  .00014157  00000-0  87276-3 0  9997","TLE_LINE2":"2 45561  53.0594  10.1978 0002249  84.5465 275.5783 15.10199758108668","ELEMENT_SET_NO":"999","FILE":"3373054","GP_ID":"199618904","REV_AT_EPOCH":"10866","MEAN_MOTION_DDOT":"0.0000000000000","TIME_SYSTEM":"UTC","DECAY_DATE":null,"MEAN_ELEMENT_THEORY":"SGP4","OBJECT_ID":"2020-025AG","BSTAR":"0.00087276000000","REF_FRAME":"TEME","SITE":"AFETR","APOAPSIS":"537.147","MEAN_ANOMALY":"275.5783","NORAD_CAT_ID":"45561","LAUNCH_DATE":"2020-04-22","COUNTRY_CODE":"US","EPHEMERIS_TYPE":"0","ARG_OF_PERICENTER":"84.5465","MEAN_MOTION":"15.10199758","INCLINATION":"53.0594","OBJECT_TYPE":"PAYLOAD","ECCENTRICITY":"0.00022490","PERIAPSIS":"534.037","RA_OF_ASC_NODE":"10.1978","PERIOD":"95.352","CLASSIFICATION_TYPE":"U","CENTER_NAME":"EARTH","SEMIMAJOR_AXIS":"6913.727","OBJECT_NAME":"STARLINK-1348","RCS_SIZE":"LARGE","MEAN_MOTION_DOT":"0.00014157"},{"ARG_OF_PERICENTER":"63.1381","MEAN_MOTION":"15.06404552","INCLINATION":"53.0530","LAUNCH_DATE":"2020-04-22","COUNTRY_CODE":"US","EPHEMERIS_TYPE":"0","CLASSIFICATION_TYPE":"U","OBJECT_TYPE":"PAYLOAD","PERIAPSIS":"545.895","ECCENTRICITY":"0.00018840","RA_OF_ASC_NODE":"97.6218","PERIOD":"95.592","CENTER_NAME":"EARTH","SEMIMAJOR_AXIS":"6925.335","RCS_SIZE":"LARGE","MEAN_MOTION_DOT":"0.00004943","OBJECT_NAME":"STARLINK-1354","ELEMENT_SET_NO":"999","EPOCH":"2022-03-24T18:20:45.213216","TLE_LINE1":"1 45562U 20025AH  22083.76441219  .00004943  00000-0  35049-3 0  9994","TLE_LINE2":"2 45562  53.0530  97.6218 0001884  63.1381 296.9801 15.06404552107438","REV_AT_EPOCH":"10743","MEAN_MOTION_DDOT":"0.0000000000000","FILE":"3373054","GP_ID":"199617652","OBJECT_ID":"2020-025AH","MEAN_ELEMENT_THEORY":"SGP4","BSTAR":"0.00035049000000","REF_FRAME":"TEME","TIME_SYSTEM":"UTC","DECAY_DATE":null,"MEAN_ANOMALY":"296.9801","NORAD_CAT_ID":"45562","APOAPSIS":"548.504","SITE":"AFETR"},{"NORAD_CAT_ID":"45563","MEAN_ANOMALY":"287.7132","SITE":"AFETR","APOAPSIS":"548.322","REF_FRAME":"TEME","MEAN_ELEMENT_THEORY":"SGP4","OBJECT_ID":"2020-025AJ","BSTAR":"0.00008243500000","TIME_SYSTEM":"UTC","DECAY_DATE":null,"MEAN_MOTION_DDOT":"0.0000000000000","REV_AT_EPOCH":"10737","GP_ID":"199572125","FILE":"3372185","ELEMENT_SET_NO":"999","TLE_LINE1":"1 45563U 20025AJ  22083.38106925  .00000947  00000-0  82435-4 0  9997","TLE_LINE2":"2 45563  53.0541  99.3617 0001605  72.4032 287.7132 15.06401076107376","EPOCH":"2022-03-24T09:08:44.383200","MEAN_MOTION_DOT":"0.00000947","RCS_SIZE":"LARGE","OBJECT_NAME":"STARLINK-1355","SEMIMAJOR_AXIS":"6925.345","CENTER_NAME":"EARTH","CLASSIFICATION_TYPE":"U","PERIOD":"95.592","RA_OF_ASC_NODE":"99.3617","OBJECT_TYPE":"PAYLOAD","PERIAPSIS":"546.099","ECCENTRICITY":"0.00016050","MEAN_MOTION":"15.06401076","INCLINATION":"53.0541","ARG_OF_PERICENTER":"72.4032","EPHEMERIS_TYPE":"0","COUNTRY_CODE":"US","LAUNCH_DATE":"2020-04-22"},{"OBJECT_NAME":"STARLINK-1356","MEAN_MOTION_DOT":"0.00001851","RCS_SIZE":"LARGE","CENTER_NAME":"EARTH","SEMIMAJOR_AXIS":"6925.355","PERIAPSIS":"546.084","OBJECT_TYPE":"PAYLOAD","ECCENTRICITY":"0.00016400","PERIOD":"95.592","RA_OF_ASC_NODE":"97.5728","CLASSIFICATION_TYPE":"U","LAUNCH_DATE":"2020-04-22","COUNTRY_CODE":"US","EPHEMERIS_TYPE":"0","ARG_OF_PERICENTER":"64.6860","INCLINATION":"53.0544","MEAN_MOTION":"15.06397951","SITE":"AFETR","APOAPSIS":"548.356","MEAN_ANOMALY":"295.4298","NORAD_CAT_ID":"45564","DECAY_DATE":null,"TIME_SYSTEM":"UTC","BSTAR":"0.00014311000000","OBJECT_ID":"2020-025AK","MEAN_ELEMENT_THEORY":"SGP4","REF_FRAME":"TEME","FILE":"3373054","GP_ID":"199618654","REV_AT_EPOCH":"10743","MEAN_MOTION_DDOT":"0.0000000000000","EPOCH":"2022-03-24T18:36:40.643424","TLE_LINE2":"2 45564  53.0544  97.5728 0001640  64.6860 295.4298 15.06397951107436","TLE_LINE1":"1 45564U 20025AK  22083.77547041  .00001851  00000-0  14311-3 0  9991","ELEMENT_SET_NO":"999"},{"CLASSIFICATION_TYPE":"U","ECCENTRICITY":"0.00019850","OBJECT_TYPE":"PAYLOAD","PERIAPSIS":"545.832","RA_OF_ASC_NODE":"97.6103","PERIOD":"95.592","ARG_OF_PERICENTER":"61.4818","MEAN_MOTION":"15.06402265","INCLINATION":"53.0536","LAUNCH_DATE":"2020-04-22","COUNTRY_CODE":"US","EPHEMERIS_TYPE":"0","MEAN_MOTION_DOT":"0.00001928","RCS_SIZE":"LARGE","OBJECT_NAME":"STARLINK-1357","CENTER_NAME":"EARTH","SEMIMAJOR_AXIS":"6925.342","REV_AT_EPOCH":"10743","MEAN_MOTION_DDOT":"0.0000000000000","FILE":"3373054","GP_ID":"199619404","ELEMENT_SET_NO":"999","EPOCH":"2022-03-24T18:26:03.300000","TLE_LINE1":"1 45565U 20025AL  22083.76809375  .00001928  00000-0  14832-3 0  9995","TLE_LINE2":"2 45565  53.0536  97.6103 0001985  61.4818 298.6370 15.06402265107437","MEAN_ANOMALY":"298.6370","NORAD_CAT_ID":"45565","APOAPSIS":"548.581","SITE":"AFETR","OBJECT_ID":"2020-025AL","MEAN_ELEMENT_THEORY":"SGP4","BSTAR":"0.00014832000000","REF_FRAME":"TEME","TIME_SYSTEM":"UTC","DECAY_DATE":null},{"GP_ID":"199571873","FILE":"3372185","MEAN_MOTION_DDOT":"0.0000000000000","REV_AT_EPOCH":"10738","TLE_LINE2":"2 45566  53.0544  99.0426 0001839  52.3312 307.7843 15.06396480107389","TLE_LINE1":"1 45566U 20025AM  22083.45110098  .00000466  00000-0  50173-4 0  9994","EPOCH":"2022-03-24T10:49:35.124672","ELEMENT_SET_NO":"999","SITE":"AFETR","APOAPSIS":"548.498","NORAD_CAT_ID":"45566","MEAN_ANOMALY":"307.7843","DECAY_DATE":null,"TIME_SYSTEM":"UTC","REF_FRAME":"TEME","BSTAR":"0.00005017300000","OBJECT_ID":"2020-025AM","MEAN_ELEMENT_THEORY":"SGP4","RA_OF_ASC_NODE":"99.0426","PERIOD":"95.592","OBJECT_TYPE":"PAYLOAD","ECCENTRICITY":"0.00018390","PERIAPSIS":"545.951","CLASSIFICATION_TYPE":"U","COUNTRY_CODE":"US","EPHEMERIS_TYPE":"0","LAUNCH_DATE":"2020-04-22","INCLINATION":"53.0544","MEAN_MOTION":"15.06396480","ARG_OF_PERICENTER":"52.3312","OBJECT_NAME":"STARLINK-1358","MEAN_MOTION_DOT":"0.00000466","RCS_SIZE":"LARGE","SEMIMAJOR_AXIS":"6925.359","CENTER_NAME":"EARTH"},{"EPOCH":"2022-03-24T17:27:39.313440","TLE_LINE2":"2 45567  53.0536  97.7855 0001661  68.4614 291.6552 15.06414004106827","TLE_LINE1":"1 45567U 20025AN  22083.72753835  .00000559  00000-0  56402-4 0  9991","ELEMENT_SET_NO":"999","FILE":"3372249","GP_ID":"199578988","REV_AT_EPOCH":"10682","MEAN_MOTION_DDOT":"0.0000000000000","DECAY_DATE":null,"TIME_SYSTEM":"UTC","BSTAR":"0.00005640200000","MEAN_ELEMENT_THEORY":"SGP4","OBJECT_ID":"2020-025AN","REF_FRAME":"TEME","APOAPSIS":"548.321","SITE":"AFETR","MEAN_ANOMALY":"291.6552","NORAD_CAT_ID":"45567","LAUNCH_DATE":"2020-04-22","EPHEMERIS_TYPE":"0","COUNTRY_CODE":"US","ARG_OF_PERICENTER":"68.4614","INCLINATION":"53.0536","MEAN_MOTION":"15.06414004","OBJECT_TYPE":"PAYLOAD","ECCENTRICITY":"0.00016610","PERIAPSIS":"546.020","PERIOD":"95.591","RA_OF_ASC_NODE":"97.7855","CLASSIFICATION_TYPE":"U","CENTER_NAME":"EARTH","SEMIMAJOR_AXIS":"6925.306","OBJECT_NAME":"STARLINK-1361","MEAN_MOTION_DOT":"0.00000559","RCS_SIZE":"LARGE"},{"LAUNCH_DATE":"2020-04-22","COUNTRY_CODE":"US","EPHEMERIS_TYPE":"0","ARG_OF_PERICENTER":"68.0476","MEAN_MOTION":"15.06403640","INCLINATION":"53.0542","OBJECT_TYPE":"PAYLOAD","PERIAPSIS":"546.019","ECCENTRICITY":"0.00017090","RA_OF_ASC_NODE":"99.0254","PERIOD":"95.592","CLASSIFICATION_TYPE":"U","CENTER_NAME":"EARTH","SEMIMAJOR_AXIS":"6925.337","OBJECT_NAME":"STARLINK-1363","MEAN_MOTION_DOT":"0.00000467","RCS_SIZE":"LARGE","EPOCH":"2022-03-24T10:53:32.003232","TLE_LINE1":"1 45568U 20025AP  22083.45384263  .00000467  00000-0  50243-4 0  9992","TLE_LINE2":"2 45568  53.0542  99.0254 0001709  68.0476 292.0695 15.06403640107387","ELEMENT_SET_NO":"999","FILE":"3372185","GP_ID":"199572371","REV_AT_EPOCH":"10738","MEAN_MOTION_DDOT":"0.0000000000000","TIME_SYSTEM":"UTC","DECAY_DATE":null,"OBJECT_ID":"2020-025AP","MEAN_ELEMENT_THEORY":"SGP4","BSTAR":"0.00005024300000","REF_FRAME":"TEME","APOAPSIS":"548.386","SITE":"AFETR","MEAN_ANOMALY":"292.0695","NORAD_CAT_ID":"45568"},{"EPOCH":"2022-03-24T20:44:03.322176","TLE_LINE2":"2 45569  53.0544  97.1818 0001774  54.3605 305.7549 15.06401135107443","TLE_LINE1":"1 45569U 20025AQ  22083.86392734  .00000180  00000-0  31014-4 0  9997","ELEMENT_SET_NO":"999","FILE":"3373054","GP_ID":"199618905","REV_AT_EPOCH":"10744","MEAN_MOTION_DDOT":"0.0000000000000","DECAY_DATE":null,"TIME_SYSTEM":"UTC","BSTAR":"0.00003101400000","MEAN_ELEMENT_THEORY":"SGP4","OBJECT_ID":"2020-025AQ","REF_FRAME":"TEME","APOAPSIS":"548.439","SITE":"AFETR","MEAN_ANOMALY":"305.7549","NORAD_CAT_ID":"45569","LAUNCH_DATE":"2020-04-22","EPHEMERIS_TYPE":"0","COUNTRY_CODE":"US","ARG_OF_PERICENTER":"54.3605","INCLINATION":"53.0544","MEAN_MOTION":"15.06401135","ECCENTRICITY":"0.00017740","OBJECT_TYPE":"PAYLOAD","PERIAPSIS":"545.982","RA_OF_ASC_NODE":"97.1818","PERIOD":"95.592","CLASSIFICATION_TYPE":"U","CENTER_NAME":"EARTH","SEMIMAJOR_AXIS":"6925.345","OBJECT_NAME":"STARLINK-1366","RCS_SIZE":"LARGE","MEAN_MOTION_DOT":"0.00000180"}];
